ORBCOMM FM24            
1 25478U 98053D   24123.48034153  .00001619  00000+0  60488-3 0  9996
2 25478  45.0086  52.7232 0002466 330.3408  29.7299 14.35614301338371
ORBCOMM FM25            
1 25479U 98053E   24123.51609717  .00001434  00000+0  54174-3 0  9995
2 25479  45.0078  50.7977 0004895 344.8078  15.2621 14.35593649338671
ORBCOMM FM26            
1 25480U 98053F   24123.51952810  .00001384  00000+0  53020-3 0  9995
2 25480  45.0074  44.8662 0006672   4.9582 355.1331 14.35045830338615
ORBCOMM FM27            
1 25481U 98053G   24123.50413340  .00001517  00000+0  57044-3 0  9993
2 25481  45.0062  51.1186 0000939 337.4760  22.6046 14.35578657338603
ORBCOMM FM28            
1 25482U 98053H   24123.70179765  .00001225  00000+0  46581-3 0  9996
2 25482  45.0063 348.6803 0004118  42.7701 317.3467 14.36019490339472
ORBCOMM FM30            
1 25980U 99065A   24123.41257601  .00001347  00000+0  51603-3 0  9993
2 25980  45.0303 230.8917 0005388 127.3379 232.7960 14.35189557275390
ORBCOMM FM31            
1 25981U 99065B   24123.58695112  .00001154  00000+0  44919-3 0  9993
2 25981  45.0216 223.7670 0003498 167.5633 192.5301 14.35189802274978
ORBCOMM FM32            
1 25982U 99065C   24123.42345302  .00001264  00000+0  49693-3 0  9996
2 25982  45.0144 238.2861 0005907 154.5856 205.5282 14.34164459275583
